[{"OBJECT_NAME":"STARLINK-30860","OBJECT_ID":"2023-171E","EPOCH":"2026-03-09T23:15:38.981952","MEAN_MOTION":15.26739072,"ECCENTRICITY":8.784e-5,"INCLINATION":42.9992,"RA_OF_ASC_NODE":283.106,"ARG_OF_PERICENTER":218.8643,"MEAN_ANOMALY":141.2145,"EPHEMERIS_TYPE":0,"CLASSIFICATION_TYPE":"U","NORAD_CAT_ID":58234,"ELEMENT_SET_NO":999,"REV_AT_EPOCH":12978,"BSTAR":6.833614e-6,"MEAN_MOTION_DOT":-7.6e-7,"MEAN_MOTION_DDOT":0},{"OBJECT_NAME":"FLOCK 4G-22","OBJECT_ID":"2025-009AN","EPOCH":"2026-03-09T22:51:40.689792","MEAN_MOTION":15.2720903,"ECCENTRICITY":8.959e-5,"INCLINATION":97.4046,"RA_OF_ASC_NODE":151.5884,"ARG_OF_PERICENTER":284.1963,"MEAN_ANOMALY":75.9176,"EPHEMERIS_TYPE":0,"CLASSIFICATION_TYPE":"U","NORAD_CAT_ID":62645,"ELEMENT_SET_NO":999,"REV_AT_EPOCH":6376,"BSTAR":0.00049035383,"MEAN_MOTION_DOT":0.00013013,"MEAN_MOTION_DDOT":0}]
